[{"OBJECT_NAME":"STARLINK-4434","OBJECT_ID":"2022-099AN","EPOCH":"2026-03-09T20:53:08.550240","MEAN_MOTION":15.01260791,"ECCENTRICITY":0.00032518,"INCLINATION":97.6017,"RA_OF_ASC_NODE":190.4041,"ARG_OF_PERICENTER":88.8351,"MEAN_ANOMALY":271.3246,"EPHEMERIS_TYPE":0,"CLASSIFICATION_TYPE":"U","NORAD_CAT_ID":53501,"ELEMENT_SET_NO":999,"REV_AT_EPOCH":19601,"BSTAR":4.2660868e-5,"MEAN_MOTION_DOT":4.9e-6,"MEAN_MOTION_DDOT":0},{"OBJECT_NAME":"PEGASUS DEB","OBJECT_ID":"1994-029AFS","EPOCH":"2026-03-05T01:55:28.354656","MEAN_MOTION":14.43480467,"ECCENTRICITY":0.0257103,"INCLINATION":81.851,"RA_OF_ASC_NODE":190.8287,"ARG_OF_PERICENTER":229.4197,"MEAN_ANOMALY":128.4368,"EPHEMERIS_TYPE":0,"CLASSIFICATION_TYPE":"U","NORAD_CAT_ID":39919,"ELEMENT_SET_NO":999,"REV_AT_EPOCH":61478,"BSTAR":0.0012112531,"MEAN_MOTION_DOT":6.148e-5,"MEAN_MOTION_DDOT":0}]
